[{"OBJECT_NAME":"COSMOS 2554","OBJECT_ID":"2022-036A","EPOCH":"2026-03-09T22:45:59.020128","MEAN_MOTION":13.96674082,"ECCENTRICITY":0.00070544,"INCLINATION":67.1465,"RA_OF_ASC_NODE":109.8665,"ARG_OF_PERICENTER":263.5063,"MEAN_ANOMALY":96.5218,"EPHEMERIS_TYPE":0,"CLASSIFICATION_TYPE":"U","NORAD_CAT_ID":52202,"ELEMENT_SET_NO":999,"REV_AT_EPOCH":20009,"BSTAR":1.8000991e-5,"MEAN_MOTION_DOT":-5.0e-7,"MEAN_MOTION_DDOT":0},{"OBJECT_NAME":"COSMOS 1275 DEB","OBJECT_ID":"1981-053SX","EPOCH":"2026-03-06T09:18:19.029600","MEAN_MOTION":13.87373752,"ECCENTRICITY":0.00492951,"INCLINATION":82.934,"RA_OF_ASC_NODE":287.3085,"ARG_OF_PERICENTER":12.5568,"MEAN_ANOMALY":166.4458,"EPHEMERIS_TYPE":0,"CLASSIFICATION_TYPE":"U","NORAD_CAT_ID":42183,"ELEMENT_SET_NO":999,"REV_AT_EPOCH":60036,"BSTAR":0.00092512342,"MEAN_MOTION_DOT":1.115e-5,"MEAN_MOTION_DDOT":0}]
